OBJECT_NAME,OBJECT_ID,EPOCH,MEAN_MOTION,ECCENTRICITY,INCLINATION,RA_OF_ASC_NODE,ARG_OF_PERICENTER,MEAN_ANOMALY,EPHEMERIS_TYPE,CLASSIFICATION_TYPE,NORAD_CAT_ID,ELEMENT_SET_NO,REV_AT_EPOCH,BSTAR,MEAN_MOTION_DOT,MEAN_MOTION_DDOT
JILIN-1 07,2018-008E,2026-07-21T06:02:59.513280,15.35226276,.00062614,97.1771,221.2829,300.8022,59.2605,0,U,43159,999,47022,.18986978E-3,.6419E-4,0
JILIN-1 08,2018-008F,2026-07-21T05:04:31.516032,15.34052419,.00046244,97.1808,220.5206,327.2348,32.8608,0,U,43160,999,47016,.13488473E-3,.4368E-4,0
S-NET D,2018-014G,2026-07-20T23:22:46.213536,15.16949015,.00062068,97.5322,106.5546,259.4528,100.6006,0,U,43186,999,46388,.1587784E-3,.3066E-4,0
S-NET B,2018-014H,2026-07-21T02:50:12.146496,15.16919969,.00068993,97.5327,106.6854,253.2337,106.8139,0,U,43187,999,46390,.16682274E-3,.3222E-4,0
S-NET A,2018-014J,2026-07-21T04:05:50.913024,15.16958906,.00067622,97.5337,106.9529,253.7845,106.2644,0,U,43188,999,46391,.17218872E-3,.3331E-4,0
S-NET C,2018-014K,2026-07-21T02:56:03.051456,15.16910833,.00082339,97.5353,106.9845,245.3941,114.6435,0,U,43189,999,46245,.16396885E-3,.3165E-4,0
PAZ,2018-020A,2026-07-21T07:01:24.945312,15.19157031,.00016708,97.4459,209.1945,88.2130,271.9296,0,U,43215,999,46618,.60583059E-4,.1206E-4,0
GOES 17,2018-022A,2026-07-21T05:44:38.702112,1.00272123,.00006229,1.0224,85.1778,59.1407,151.3441,0,U,43226,999,3076,0,-.182E-5,0
LKW-4,2018-025A,2026-07-21T01:27:56.220768,15.64886539,.00036784,97.6364,15.6645,165.9980,194.1382,0,U,43236,999,46532,.35757687E-3,.34878E-3,0
ZHUHAI-1 OVS-02,2018-040B,2026-07-21T06:44:32.143776,15.25426448,.00055056,97.0389,217.4961,121.0347,239.1433,0,U,43440,999,45791,.20601635E-3,.5142E-4,0
ZHUHAI-1 OHS-02,2018-040C,2026-07-21T07:29:19.157856,15.26322900,.00114661,97.0366,224.4988,107.2583,252.9913,0,U,43441,999,11948,.22152353E-3,.5694E-4,0
GAOFEN-6,2018-048A,2026-07-21T07:06:24.408576,14.76388118,.00119777,98.0948,265.0124,64.7704,295.4746,0,U,43484,999,43842,.51503264E-4,.306E-5,0
LUOJIA-1 01,2018-048B,2026-07-21T06:47:11.093856,14.87390164,.00092297,97.8089,279.9234,18.9974,341.1585,0,U,43485,999,43928,.56042976E-4,.453E-5,0
PAKTES 1A,2018-056A,2026-07-21T05:52:28.972128,14.99218689,.00194524,98.1309,0.1861,1.9567,358.1728,0,U,43529,999,43702,.81443607E-4,.93E-5,0
PRSS-1,2018-056B,2026-07-21T06:51:49.054752,14.82034688,.00013013,97.7798,269.2092,93.7791,266.3571,0,U,43530,999,43348,.90507648E-4,.668E-5,0
HAIYANG-1C,2018-068A,2026-07-21T06:58:50.920896,14.34187563,.00107205,98.5171,274.1036,0.6304,359.4893,0,U,43609,999,41197,-.5310864E-5,-.58E-6,0
SSTL S1-4,2018-071A,2026-07-21T06:18:42.208128,14.96215451,.0002785,97.4981,72.4507,87.8074,272.3466,0,U,43618,999,42803,.11495662E-3,.1242E-4,0
HAIYANG-2B,2018-081A,2026-07-21T07:53:23.328672,13.79307938,.0001188,99.3296,210.5706,139.3165,220.8076,0,U,43655,999,38963,.3346698E-3,.299E-5,0
CZ-4B R/B,2018-081B,2026-07-21T05:11:11.223168,14.31873427,.02048189,99.3654,122.8520,168.4912,192.1057,0,U,43656,999,40417,.30014802E-4,.44E-6,0
CFOSAT,2018-083A,2026-07-21T06:35:27.003840,15.16318537,.00015064,97.3619,205.8040,37.6210,322.5129,0,U,43662,999,42760,.11527734E-3,.2169E-4,0
TEN-KOH,2018-084G,2026-07-21T06:38:08.214144,15.03067137,.00095618,98.0771,36.0757,13.2625,346.8849,0,U,43677,999,42128,.1257031E-3,.1629E-4,0
DIWATA-2B,2018-084H,2026-07-21T05:53:50.404992,15.00574982,.00124865,98.1221,39.9465,65.6947,294.5578,0,U,43678,999,42132,.64112745E-4,.744E-5,0
STARS-AO,2018-084J,2026-07-20T20:10:13.718784,15.17382313,.00034446,98.0473,57.8888,69.4986,290.6615,0,U,43679,999,42257,.19297702E-3,.3779E-4,0
AUTCUBE 2,2018-084K,2026-07-21T02:06:47.316960,15.10289469,.00075403,98.0689,50.0611,291.8040,68.2386,0,U,43681,999,42204,.13339954E-3,.2114E-4,0
METOP-C,2018-087A,2026-07-21T04:56:29.469696,14.21503989,.00020911,98.6625,261.1843,86.0249,274.1167,0,U,43689,999,39966,.43868448E-4,.53E-6,0
ES'HAIL 2,2018-090A,2026-07-21T06:21:33.751872,1.00272765,.00024121,0.0140,324.3139,190.2603,265.6382,0,U,43700,999,2801,0,.145E-5,0
MOHAMMED VI-B,2018-095A,2026-07-21T07:39:11.296800,14.77086539,.00017958,97.9537,274.1709,93.0311,267.1105,0,U,43717,999,41322,.69223094E-4,.438E-5,0
COSMOS 2530 (RODNIK-S 16),2018-097A,2026-07-21T06:23:10.654656,12.42881710,.00187022,82.5130,201.1304,325.3543,34.6317,0,U,43751,999,34652,-.35580304E-3,-.39E-6,0
COSMOS 2531 (RODNIK-S 17),2018-097B,2026-07-21T06:54:02.251584,12.42912868,.00162995,82.5174,202.1870,345.6388,14.4226,0,U,43752,999,34654,-.56572801E-3,-.69E-6,0
