{"_default": { "9": {"norad_id": "43700", "name": "ES'HAIL 2", "tle1": "1 43700U 18090A   26202.26497398  .00000145  00000-0  00000-0 0  9992", "tle2": "2 43700   0.0140 324.3139 0002412 190.2603 265.6382  1.00272765 28019", "object_type": "PAYLOAD", "criticality_score": 9.0, "last_updated": "2026-07-21T16:42:32.471020+00:00", "maneuver_count": 0, "owner": "AB"}, "10": {"norad_id": "43678", "name": "DIWATA 2B", "tle1": "1 43678U 18084H   26202.24572228  .00000744  00000-0  64113-4 0  9997", "tle2": "2 43678  98.1221  39.9465 0012486  65.6947 294.5578 15.00574982421320", "object_type": "PAYLOAD", "criticality_score": 9.0, "last_updated": "2026-07-21T16:42:32.471020+00:00", "maneuver_count": 0, "owner": "RP"}, "11": {"norad_id": "43677", "name": "TEN-KOH", "tle1": "1 43677U 18084G   26202.27648396  .00001629  00000-0  12570-3 0  9991", "tle2": "2 43677  98.0771  36.0757 0009562  13.2625 346.8849 15.03067137421282", "object_type": "PAYLOAD", "criticality_score": 9.0, "last_updated": "2026-07-21T16:42:32.471020+00:00", "maneuver_count": 0, "owner": "JPN"}, "42": {"norad_id": "43681", "name": "AUTCUBE 2", "tle1": "1 43681U 18084K   26202.08804765  .00002114  00000-0  13340-3 0  9995", "tle2": "2 43681  98.0689  50.0611 0007540 291.8040  68.2386 15.10289469422047", "object_type": "PAYLOAD", "criticality_score": 9.0, "last_updated": "2026-07-21T16:42:32.471020+00:00", "maneuver_count": 0, "owner": "JPN"}, "43": {"norad_id": "43656", "name": "CZ-4B R/B", "tle1": "1 43656U 18081B   26202.21610212  .00000044  00000-0  30015-4 0  9990", "tle2": "2 43656  99.3654 122.8520 0204819 168.4912 192.1057 14.31873427404178", "object_type": "ROCKET_BODY", "criticality_score": 9.0, "last_updated": "2026-07-21T16:42:32.471020+00:00", "maneuver_count": 0, "owner": "PRC"}, "76": {"norad_id": "43186", "name": "S-NET D", "tle1": "1 43186U 18014G   26201.97414599  .00003066  00000-0  15878-3 0  9992", "tle2": "2 43186  97.5322 106.5546 0006207 259.4528 100.6006 15.16949015463882", "object_type": "PAYLOAD", "criticality_score": 9.0, "last_updated": "2026-07-21T16:42:32.471020+00:00", "maneuver_count": 0, "owner": "GER"}, "77": {"norad_id": "43189", "name": "S-NET C", "tle1": "1 43189U 18014K   26202.12225754  .00003165  00000-0  16397-3 0  9993", "tle2": "2 43189  97.5353 106.9845 0008234 245.3941 114.6435 15.16910833462459", "object_type": "PAYLOAD", "criticality_score": 9.0, "last_updated": "2026-07-21T16:42:32.471020+00:00", "maneuver_count": 0, "owner": "GER"}, "78": {"norad_id": "43187", "name": "S-NET B", "tle1": "1 43187U 18014H   26202.11819614  .00003222  00000-0  16682-3 0  9995", "tle2": "2 43187  97.5327 106.6854 0006899 253.2337 106.8139 15.16919969463901", "object_type": "PAYLOAD", "criticality_score": 9.0, "last_updated": "2026-07-21T16:42:32.471020+00:00", "maneuver_count": 0, "owner": "GER"}, "79": {"norad_id": "43188", "name": "S-NET A", "tle1": "1 43188U 18014J   26202.17072816  .00003331  00000-0  17219-3 0  9995", "tle2": "2 43188  97.5337 106.9529 0006762 253.7845 106.2644 15.16958906463913", "object_type": "PAYLOAD", "criticality_score": 9.0, "last_updated": "2026-07-21T16:42:32.471020+00:00", "maneuver_count": 0, "owner": "GER"}, "105": {"norad_id": "43689", "name": "METOP-C", "tle1": "1 43689U 18087A   26202.20589664  .00000053  00000-0  43868-4 0  9997", "tle2": "2 43689  98.6625 261.1843 0002091  86.0249 274.1167 14.21503989399667", "object_type": "PAYLOAD", "criticality_score": 9.0, "last_updated": "2026-07-21T16:42:32.471020+00:00", "maneuver_count": 0, "owner": "EUME"}, "106": {"norad_id": "43679", "name": "STARS-AO", "tle1": "1 43679U 18084J   26201.84043656  .00003779  00000-0  19298-3 0  9995", "tle2": "2 43679  98.0473  57.8888 0003445  69.4986 290.6615 15.17382313422577", "object_type": "PAYLOAD", "criticality_score": 9.0, "last_updated": "2026-07-21T16:42:32.471020+00:00", "maneuver_count": 0, "owner": "JPN"}, "137": {"norad_id": "43485", "name": "LUOJIA-1 01", "tle1": "1 43485U 18048B   26202.28276729  .00000453  00000-0  56043-4 0  9994", "tle2": "2 43485  97.8089 279.9234 0009230  18.9974 341.1585 14.87390164439281", "object_type": "PAYLOAD", "criticality_score": 9.0, "last_updated": "2026-07-21T16:42:32.471020+00:00", "maneuver_count": 0, "owner": "PRC"}, "194": {"norad_id": "43159", "name": "JILIN-01-07", "tle1": "1 43159U 18008E   26202.25207770  .00006419  00000-0  18987-3 0  9997", "tle2": "2 43159  97.1771 221.2829 0006261 300.8022  59.2605 15.35226276470223", "object_type": "PAYLOAD", "criticality_score": 9.0, "last_updated": "2026-07-21T16:42:32.471020+00:00", "maneuver_count": 0, "owner": "PRC"}, "195": {"norad_id": "43160", "name": "JILIN-01-08", "tle1": "1 43160U 18008F   26202.21147588  .00004368  00000-0  13488-3 0  9997", "tle2": "2 43160  97.1808 220.5206 0004624 327.2348  32.8608 15.34052419470160", "object_type": "PAYLOAD", "criticality_score": 9.0, "last_updated": "2026-07-21T16:42:32.471020+00:00", "maneuver_count": 0, "owner": "PRC"}, "226": {"norad_id": "43441", "name": "ZHUHAI-1 OHS-02", "tle1": "1 43441U 18040C   26202.31202729  .00005694  00000-0  22152-3 0  9996", "tle2": "2 43441  97.0366 224.4988 0011466 107.2583 252.9913 15.26322900119484", "object_type": "PAYLOAD", "criticality_score": 9.0, "last_updated": "2026-07-21T16:42:32.471020+00:00", "maneuver_count": 0, "owner": "PRC"}, "233": {"norad_id": "43440", "name": "ZHUHAI-1 OVS-02", "tle1": "1 43440U 18040B   26202.28092759  .00005142  00000-0  20602-3 0  9997", "tle2": "2 43440  97.0389 217.4961 0005506 121.0347 239.1433 15.25426448457919", "object_type": "PAYLOAD", "criticality_score": 9.0, "last_updated": "2026-07-21T16:42:32.471020+00:00", "maneuver_count": 0, "owner": "PRC"}, "291": {"norad_id": "43618", "name": "SSTL S1-4", "tle1": "1 43618U 18071A   26202.26298852  .00001242  00000-0  11496-3 0  9996", "tle2": "2 43618  97.4981  72.4507 0002785  87.8074 272.3466 14.96215451428038", "object_type": "PAYLOAD", "criticality_score": 9.0, "last_updated": "2026-07-21T16:42:32.471020+00:00", "maneuver_count": 0, "owner": "UK"}, "292": {"norad_id": "43717", "name": "MOHAMMED VI-B", "tle1": "1 43717U 18095A   26202.31888075  .00000438  00000-0  69223-4 0  9998", "tle2": "2 43717  97.9537 274.1709 0001796  93.0311 267.1105 14.77086539413228", "object_type": "PAYLOAD", "criticality_score": 9.0, "last_updated": "2026-07-21T16:42:32.471020+00:00", "maneuver_count": 0, "owner": "MA"}, "305": {"norad_id": "43226", "name": "GOES 17", "tle1": "1 43226U 18022A   26202.23933683 -.00000182  00000-0  00000-0 0  9991", "tle2": "2 43226   1.0224  85.1778 0000623  59.1407 151.3441  1.00272123 30764", "object_type": "PAYLOAD", "criticality_score": 9.0, "last_updated": "2026-07-21T16:42:32.471020+00:00", "maneuver_count": 0, "owner": "US"}, "409": {"norad_id": "43484", "name": "GAOFEN 6", "tle1": "1 43484U 18048A   26202.29611584  .00000306  00000-0  51503-4 0  9999", "tle2": "2 43484  98.0948 265.0124 0011978  64.7704 295.4746 14.76388118438422", "object_type": "PAYLOAD", "criticality_score": 9.0, "last_updated": "2026-07-21T16:42:32.471020+00:00", "maneuver_count": 0, "owner": "PRC"}, "422": {"norad_id": "43662", "name": "CFOSAT", "tle1": "1 43662U 18083A   26202.27461810  .00002169  00000-0  11528-3 0  9990", "tle2": "2 43662  97.3619 205.8040 0001506  37.6210 322.5129 15.16318537427601", "object_type": "PAYLOAD", "criticality_score": 9.0, "last_updated": "2026-07-21T16:42:32.471020+00:00", "maneuver_count": 0, "owner": "PRC"}, "440": {"norad_id": "43609", "name": "HAIYANG 1C", "tle1": "1 43609U 18068A   26202.29086714 -.00000058  00000-0 -53109-5 0  9992", "tle2": "2 43609  98.5171 274.1036 0010721   0.6304 359.4893 14.34187563411977", "object_type": "PAYLOAD", "criticality_score": 9.0, "last_updated": "2026-07-21T16:42:32.471020+00:00", "maneuver_count": 0, "owner": "PRC"}, "480": {"norad_id": "43529", "name": "PAKTES 1A", "tle1": "1 43529U 18056A   26202.24477977  .00000930  00000-0  81444-4 0  9999", "tle2": "2 43529  98.1309   0.1861 0019452   1.9567 358.1728 14.99218689437027", "object_type": "PAYLOAD", "criticality_score": 9.0, "last_updated": "2026-07-21T16:42:32.471020+00:00", "maneuver_count": 0, "owner": "PAKI"}, "482": {"norad_id": "43530", "name": "PRSS 1", "tle1": "1 43530U 18056B   26202.28598443  .00000668  00000-0  90508-4 0  9996", "tle2": "2 43530  97.7798 269.2092 0001301  93.7791 266.3571 14.82034688433481", "object_type": "PAYLOAD", "criticality_score": 9.0, "last_updated": "2026-07-21T16:42:32.471020+00:00", "maneuver_count": 0, "owner": "PAKI"}, "532": {"norad_id": "43236", "name": "LKW-4", "tle1": "1 43236U 18025A   26202.06106737  .00034878  00000-0  35758-3 0  9997", "tle2": "2 43236  97.6364  15.6645 0003678 165.9980 194.1382 15.64886539465327", "object_type": "PAYLOAD", "criticality_score": 9.0, "last_updated": "2026-07-21T16:42:32.471020+00:00", "maneuver_count": 0, "owner": "PRC"}, "535": {"norad_id": "43655", "name": "HAIYANG 2B", "tle1": "1 43655U 18081A   26202.32874223  .00000299  00000-0  33467-3 0  9990", "tle2": "2 43655  99.3296 210.5706 0001188 139.3165 220.8076 13.79307938389634", "object_type": "PAYLOAD", "criticality_score": 9.0, "last_updated": "2026-07-21T16:42:32.471020+00:00", "maneuver_count": 0, "owner": "PRC"}, "608": {"norad_id": "43751", "name": "COSMOS 2530", "tle1": "1 43751U 18097A   26202.26609554 -.00000039  00000-0 -35580-3 0  9992", "tle2": "2 43751  82.5130 201.1304 0018702 325.3543  34.6317 12.42881710346523", "object_type": "PAYLOAD", "criticality_score": 9.0, "last_updated": "2026-07-21T16:42:32.471020+00:00", "maneuver_count": 0, "owner": "CIS"}, "609": {"norad_id": "43752", "name": "COSMOS 2531", "tle1": "1 43752U 18097B   26202.28752606 -.00000069  00000-0 -56573-3 0  9990", "tle2": "2 43752  82.5174 202.1870 0016300 345.6388  14.4226 12.42912868346541", "object_type": "PAYLOAD", "criticality_score": 9.0, "last_updated": "2026-07-21T16:42:32.471020+00:00", "maneuver_count": 0, "owner": "CIS"}, "641": {"norad_id": "43215", "name": "PAZ", "tle1": "1 43215U 18020A   26202.29264983  .00001206  00000-0  60583-4 0  9996", "tle2": "2 43215  97.4459 209.1945 0001671  88.2130 271.9296 15.19157031466186", "object_type": "PAYLOAD", "criticality_score": 9.0, "last_updated": "2026-07-21T16:42:32.471020+00:00", "maneuver_count": 0, "owner": "SPN"}}}